{
  "norad_id": 59927,
  "name": "STARLINK-31968",
  "history": [
    {
      "epoch": "2026-03-28T18:24:58.059360Z",
      "apogee_km": 483.93992516844355,
      "perigee_km": 482.1595844293088,
      "latitude_deg": 1.50642784844952e-05,
      "longitude_deg": 122.08954270325938,
      "height_km": 483.05018713094904,
      "semi_major_axis_km": 6861.186754798876,
      "eccentricity": 0.00012974,
      "inclination_deg": 43.003,
      "raan_deg": 224.5145,
      "arg_perigee_deg": 255.4555,
      "mean_anomaly_deg": 104.6153,
      "mean_motion_rev_day": 15.2757978
    }
  ]
}