{"fetched_at":"2026-03-29T16:36:15Z","count":15609,"tles":[{"name":"STARLINK-31968","line1":"1 59927U 24106F   26087.76733865  .00000527  00000+0  28670-4 0  9993","line2":"2 59927  43.0030 224.5145 0001297 255.4555 104.6153 15.27579780103495","category":"Starlink"}]}